{
  "type": "FeatureCollection",
  "features": [
    {
      "type": "Feature",
      "properties": {
        "norad_id": 37594,
        "name": "FENGYUN 1C DEB",
        "group": "fengyun-1c-debris",
        "lat": 17.591566962664782,
        "lon": -160.11435078915733,
        "alt_km": 871.0604553571266,
        "timestamp": "2025-12-13T18:50:04.720691+00:00",
        "meta_object_name": "FENGYUN 1C DEB",
        "meta_object_id": "1999-025EKN",
        "meta_epoch": "2025-12-12T01:13:06.397536",
        "meta_mean_motion": 14.11116962,
        "meta_eccentricity": 0.00850219,
        "meta_inclination": 98.7348,
        "meta_ra_of_asc_node": 15.4051,
        "meta_arg_of_pericenter": 271.7365,
        "meta_mean_anomaly": 87.407,
        "meta_ephemeris_type": 0,
        "meta_classification_type": "U",
        "meta_norad_cat_id": 37594,
        "meta_element_set_no": 999,
        "meta_rev_at_epoch": 77752,
        "meta_bstar": 0.00036155709,
        "meta_mean_motion_dot": 6.3e-06,
        "meta_mean_motion_ddot": 0,
        "tle_line1": "1 37594U 99025EKN 25346.05076849  .00000630  00000+0  36156-3 0  9994",
        "tle_line2": "2 37594  98.7348  15.4051 0085021 271.7365  87.4070 14.11116962777528"
      },
      "geometry": {
        "type": "Point",
        "coordinates": [
          -160.11435078915733,
          17.591566962664782
        ]
      }
    },
    {
      "type": "Feature",
      "properties": {
        "norad_id": 37600,
        "name": "FENGYUN 1C DEB",
        "group": "fengyun-1c-debris",
        "lat": -55.456699900501974,
        "lon": -48.77612606323142,
        "alt_km": 1219.5367898950526,
        "timestamp": "2025-12-13T18:50:04.720702+00:00",
        "meta_object_name": "FENGYUN 1C DEB",
        "meta_object_id": "1999-025EKU",
        "meta_epoch": "2025-12-12T05:13:55.637184",
        "meta_mean_motion": 13.82539982,
        "meta_eccentricity": 0.03568946,
        "meta_inclination": 98.9366,
        "meta_ra_of_asc_node": 142.947,
        "meta_arg_of_pericenter": 50.9925,
        "meta_mean_anomaly": 312.2443,
        "meta_ephemeris_type": 0,
        "meta_classification_type": "U",
        "meta_norad_cat_id": 37600,
        "meta_element_set_no": 999,
        "meta_rev_at_epoch": 88480,
        "meta_bstar": 0.0043245273,
        "meta_mean_motion_dot": 7.61e-05,
        "meta_mean_motion_ddot": 0,
        "tle_line1": "1 37600U 99025EKU 25346.21800506  .00007610  00000+0  43245-2 0  9996",
        "tle_line2": "2 37600  98.9366 142.9470 0356894  50.9925 312.2443 13.82539982884808"
      },
      "geometry": {
        "type": "Point",
        "coordinates": [
          -48.77612606323142,
          -55.456699900501974
        ]
      }
    },
    {
      "type": "Feature",
      "properties": {
        "norad_id": 37683,
        "name": "FENGYUN 1C DEB",
        "group": "fengyun-1c-debris",
        "lat": 11.429190943471552,
        "lon": -94.2645001249633,
        "alt_km": 1273.5246930031362,
        "timestamp": "2025-12-13T18:50:04.720712+00:00",
        "meta_object_name": "FENGYUN 1C DEB",
        "meta_object_id": "1999-025EKY",
        "meta_epoch": "2025-12-12T12:58:55.563168",
        "meta_mean_motion": 13.31905709,
        "meta_eccentricity": 0.05850267,
        "meta_inclination": 98.0018,
        "meta_ra_of_asc_node": 266.3892,
        "meta_arg_of_pericenter": 125.5505,
        "meta_mean_anomaly": 51.504,
        "meta_ephemeris_type": 0,
        "meta_classification_type": "U",
        "meta_norad_cat_id": 37683,
        "meta_element_set_no": 999,
        "meta_rev_at_epoch": 29237,
        "meta_bstar": 0.0020634908,
        "meta_mean_motion_dot": 2.577e-05,
        "meta_mean_motion_ddot": 0,
        "tle_line1": "1 37683U 99025EKY 25346.54092087  .00002577  00000+0  20635-2 0  9995",
        "tle_line2": "2 37683  98.0018 266.3892 0585026 125.5505  51.5040 13.31905709292376"
      },
      "geometry": {
        "type": "Point",
        "coordinates": [
          -94.2645001249633,
          11.429190943471552
        ]
      }
    },
    {
      "type": "Feature",
      "properties": {
        "norad_id": 37686,
        "name": "FENGYUN 1C DEB",
        "group": "fengyun-1c-debris",
        "lat": 49.7575557905209,
        "lon": -4.724673958310331,
        "alt_km": 829.79102270371,
        "timestamp": "2025-12-13T18:50:04.720723+00:00",
        "meta_object_name": "FENGYUN 1C DEB",
        "meta_object_id": "1999-025ELB",
        "meta_epoch": "2025-12-11T07:20:34.881792",
        "meta_mean_motion": 13.35362087,
        "meta_eccentricity": 0.03959928,
        "meta_inclination": 99.0214,
        "meta_ra_of_asc_node": 3.8986,
        "meta_arg_of_pericenter": 45.8136,
        "meta_mean_anomaly": 333.7313,
        "meta_ephemeris_type": 0,
        "meta_classification_type": "U",
        "meta_norad_cat_id": 37686,
        "meta_element_set_no": 999,
        "meta_rev_at_epoch": 60608,
        "meta_bstar": 0.00082312393,
        "meta_mean_motion_dot": 6.17e-06,
        "meta_mean_motion_ddot": 0,
        "tle_line1": "1 37686U 99025ELB 25345.30595928  .00000617  00000+0  82312-3 0  9997",
        "tle_line2": "2 37686  99.0214   3.8986 0395992  45.8136 333.7313 13.35362087606086"
      },
      "geometry": {
        "type": "Point",
        "coordinates": [
          -4.724673958310331,
          49.7575557905209
        ]
      }
    },
    {
      "type": "Feature",
      "properties": {
        "norad_id": 37687,
        "name": "FENGYUN 1C DEB",
        "group": "fengyun-1c-debris",
        "lat": -73.67216153911292,
        "lon": 52.29351968205612,
        "alt_km": 868.8511765596586,
        "timestamp": "2025-12-13T18:50:04.720734+00:00",
        "meta_object_name": "FENGYUN 1C DEB",
        "meta_object_id": "1999-025ELC",
        "meta_epoch": "2025-12-09T22:08:56.355072",
        "meta_mean_motion": 13.85271364,
        "meta_eccentricity": 0.03335067,
        "meta_inclination": 98.2054,
        "meta_ra_of_asc_node": 19.3976,
        "meta_arg_of_pericenter": 6.6751,
        "meta_mean_anomaly": 112.1518,
        "meta_ephemeris_type": 0,
        "meta_classification_type": "U",
        "meta_norad_cat_id": 37687,
        "meta_element_set_no": 999,
        "meta_rev_at_epoch": 83215,
        "meta_bstar": 0.0045030182,
        "meta_mean_motion_dot": 7.869e-05,
        "meta_mean_motion_ddot": 0,
        "tle_line1": "1 37687U 99025ELC 25343.92287448  .00007869  00000+0  45030-2 0  9990",
        "tle_line2": "2 37687  98.2054  19.3976 0333506   6.6751 112.1518 13.85271364832159"
      },
      "geometry": {
        "type": "Point",
        "coordinates": [
          52.29351968205612,
          -73.67216153911292
        ]
      }
    },
    {
      "type": "Feature",
      "properties": {
        "norad_id": 37689,
        "name": "FENGYUN 1C DEB",
        "group": "fengyun-1c-debris",
        "lat": -13.151562014925155,
        "lon": -153.33866333332531,
        "alt_km": 723.7657914009596,
        "timestamp": "2025-12-13T18:50:04.720744+00:00",
        "meta_object_name": "FENGYUN 1C DEB",
        "meta_object_id": "1999-025ELE",
        "meta_epoch": "2025-12-12T02:09:35.469504",
        "meta_mean_motion": 14.48626906,
        "meta_eccentricity": 0.00208176,
        "meta_inclination": 98.92,
        "meta_ra_of_asc_node": 26.9753,
        "meta_arg_of_pericenter": 242.0212,
        "meta_mean_anomaly": 117.8873,
        "meta_ephemeris_type": 0,
        "meta_classification_type": "U",
        "meta_norad_cat_id": 37689,
        "meta_element_set_no": 999,
        "meta_rev_at_epoch": 57803,
        "meta_bstar": 0.0037418292,
        "meta_mean_motion_dot": 0.00014096,
        "meta_mean_motion_ddot": 0,
        "tle_line1": "1 37689U 99025ELE 25346.08999386  .00014096  00000+0  37418-2 0  9994",
        "tle_line2": "2 37689  98.9200  26.9753 0020817 242.0212 117.8873 14.48626906578030"
      },
      "geometry": {
        "type": "Point",
        "coordinates": [
          -153.33866333332531,
          -13.151562014925155
        ]
      }
    },
    {
      "type": "Feature",
      "properties": {
        "norad_id": 37691,
        "name": "FENGYUN 1C DEB",
        "group": "fengyun-1c-debris",
        "lat": -39.67976492862469,
        "lon": -101.50542576964105,
        "alt_km": 904.1167186972389,
        "timestamp": "2025-12-13T18:50:04.720755+00:00",
        "meta_object_name": "FENGYUN 1C DEB",
        "meta_object_id": "1999-025ELG",
        "meta_epoch": "2025-12-12T23:15:32.501952",
        "meta_mean_motion": 14.57661793,
        "meta_eccentricity": 0.02804491,
        "meta_inclination": 98.3722,
        "meta_ra_of_asc_node": 250.6552,
        "meta_arg_of_pericenter": 149.3225,
        "meta_mean_anomaly": 212.4713,
        "meta_ephemeris_type": 0,
        "meta_classification_type": "U",
        "meta_norad_cat_id": 37691,
        "meta_element_set_no": 999,
        "meta_rev_at_epoch": 85637,
        "meta_bstar": 0.0024155186,
        "meta_mean_motion_dot": 0.0001899,
        "meta_mean_motion_ddot": 0,
        "tle_line1": "1 37691U 99025ELG 25346.96912618  .00018990  00000+0  24155-2 0  9998",
        "tle_line2": "2 37691  98.3722 250.6552 0280449 149.3225 212.4713 14.57661793856375"
      },
      "geometry": {
        "type": "Point",
        "coordinates": [
          -101.50542576964105,
          -39.67976492862469
        ]
      }
    }
  ]
}